C/2019 J3 (ATLAS),h,08/01.9090/2019,131.4135,270.5196,16.5655,1.000071,2.373906,2000,13.5,4.0
# From MPC117071
C/2019 JU6 (ATLAS),e,148.2976,21.7383,94.8850,331.2051,0.0001635,0.99382438,0.0000,05/31.8690/2019,2000,g 14.5,4.0
# From MPC119997
C/2019 K1 (ATLAS),e,87.1477,73.3763,265.7107,56010,0.0000001,0.99996407,0.0000,02/12.9754/2020,2000,g 10.0,4.0
# From MPC119997
C/2019 K4 (Ye),e,105.3027,180.1640,139.7737,1751,0.0000135,0.99870922,0.0000,06/16.3741/2019,2000,g 12.5,4.0
# From MPC119997
C/2019 K5 (Young),e,15.3146,177.1727,174.9467,155.6438,0.0005076,0.98692393,0.0000,06/22.8144/2019,2000,g 13.0,4.0
# From MPC117071
A/2019 K6,e,132.3749,42.9405,187.6218,1568,0.0000159,0.99749514,0.0000,05/20.2055/2020,2000,g 13.6,2.0
# From MPC118095
C/2019 K7 (Smith),h,06/16.9491/2020,103.5381,307.9281,27.3005,1.000611,4.474947,2000,6.2,4.0
# From MPC119997
C/2019 K8 (ATLAS),e,93.2233,291.0443,85.3689,1978,0.0000112,0.99838431,0.0000,07/21.3259/2019,2000,g 11.5,4.0
# From MPC118095
C/2019 L1 (PANSTARRS),e,9.9932,254.4089,49.9416,9.834450,0.0319580,0.70606459,11.9415,08/19.0/2020,2000,g 13.5,4.0
# From MPC115886
C/2019 L2 (NEOWISE),e,152.1794,12.5861,18.7423,24.87046,0.0079465,0.93487057,4.0141,08/19.0/2020,2000,g 16.0,4.0
# From MPC119997
C/2019 L3 (ATLAS),h,01/09.7784/2022,48.3663,290.7838,171.6483,1.000704,3.553680,2000,4.5,4.0
# From MPC118095
C/2019 LB7 (Kleyna),e,164.2790,3.7041,336.4006,35.42275,0.0046750,0.92981868,2.3870,08/19.0/2020,2000,g 17.0,4.0
# From MPC118843
P/2019 M2 (ATLAS),e,12.2821,307.5964,332.5533,3.026229,0.1872197,0.64843320,79.2563,08/19.0/2020,2000,g 21.2,4.0
# From MPC118095
C/2019 M3 (ATLAS),h,01/02.9097/2019,99.4492,154.8967,87.9408,1.001692,2.418661,2000,12.2,4.0
# From MPC119997
C/2019 N1 (ATLAS),e,82.4264,13.5732,193.4462,29908,0.0000002,0.99994301,0.0000,12/01.7894/2020,2000,g  7.5,4.0
# From MPEC 2020-P41
C/2019 NJ3 (Lemmon),h,10/22.2303/2020,99.4383,142.4545,246.8331,1.000834,4.361691,2000,9.0,4.0
# From MPEC 2020-AA5
A/2019 O2,e,93.2859,48.3283,129.6725,57.39571,0.0022667,0.83132160,357.8199,08/19.0/2020,2000,g  9.5,2.0
# From MPC118843
A/2019 O3,h,03/07.7039/2021,89.8121,300.3786,60.0378,1.001824,8.818656,2000,10.0,2.0
# From MPC117072
A/2019 O4,e,115.0855,354.9198,61.8198,32.84640,0.0052357,0.88904124,1.0000,08/19.0/2020,2000,g 15.5,2.0
# From MPEC 2020-AA5
A/2019 Q1,h,07/19.8657/2020,155.7198,42.3359,55.9406,1.000368,4.996678,2000,12.5,2.0
# From MPC117072
A/2019 Q2,e,159.0206,188.0381,176.2997,57.61858,0.0022535,0.97818787,0.0000,07/22.3508/2019,2000,g 18.0,2.0
# From MPC117072
C/2019 Q3 (PANSTARRS),h,08/21.2051/2018,65.5279,151.3242,152.6639,1.004412,7.252088,2000,8.5,4.0
# From MPC117072
P/2019 S2 (PANSTARRS),e,10.4732,93.1272,216.8063,4.735383,0.0956470,0.20682062,52.1042,08/19.0/2020,2000,g 13.5,4.0
# From MPC118096
P/2019 S3 (PANSTARRS),e,8.6931,150.1622,212.9729,3.414402,0.1562183,0.47084886,56.0581,08/19.0/2020,2000,g 18.3,4.0
# From MPEC 2020-AA5
A/2019 S4,e,92.0236,63.1654,71.3593,235.7740,0.0002722,0.98540265,0.0000,04/07.9581/2020,2000,g 14.5,2.0
# From MPC118843
A/2019 T1,e,120.8691,6.9507,91.0126,38.25018,0.0041663,0.88806060,359.3827,08/19.0/2020,2000,g 13.0,2.0
# From MPEC 2020-AA5
A/2019 T2,e,111.4696,155.6384,239.3906,2380,0.0000085,0.99888813,0.0000,04/22.2787/2021,2000,g 12.5,2.0
# From MPC119998
C/2019 T3 (ATLAS),e,121.8627,139.5191,112.2637,5848,0.0000022,0.99898314,0.0000,03/02.5376/2021,2000,g  6.8,4.0
# From MPC119998
C/2019 T4 (ATLAS),e,53.6168,199.9657,351.2152,1010,0.0000307,0.99579983,0.0000,06/09.3768/2022,2000,g  5.0,4.0
# From MPC119998
P/2019 T5 (ATLAS),e,33.4240,247.6920,189.6039,8.011140,0.0434673,0.80919863,16.6862,08/19.0/2020,2000,g 15.0,4.0
# From MPC119998
P/2019 T6 (PANSTARRS),e,18.6957,71.3082,328.9057,5.433666,0.0778152,0.62240289,22.1958,08/19.0/2020,2000,g 15.5,4.0
# From MPC118096
P/2019 U4 (PANSTARRS),e,11.6908,200.0289,180.9621,3.520344,0.1492198,0.47537732,50.0825,08/19.0/2020,2000,g 19.0,4.0
# From MPC118844
A/2019 U5,h,03/30.3466/2023,113.5256,2.6891,181.6087,1.000563,3.621014,2000,10.0,2.0
# From MPEC 2020-AA5
C/2019 U6,e,61.0012,235.7057,329.6613,433.3112,0.0001093,0.99789007,0.0000,06/18.8234/2020,2000,g 14.5,2.0
# From MPC119998
C/2019 V1 (Borisov),e,61.8630,83.2047,51.1954,2214,0.0000095,0.99860076,0.0000,07/16.5570/2020,2000,g 11.0,4.0
# From MPC119998
P/2019 V2 (Groeller),e,11.8039,189.1640,336.3597,7.515249,0.0478398,0.33248276,356.8931,08/19.0/2020,2000,g 10.0,4.0
# From MPC119998
P/2019 W1 (PANSTARRS),e,23.4600,35.4112,18.7150,4.550395,0.1015384,0.26616940,47.6427,08/19.0/2020,2000,g 12.9,4.0
# From MPC119998
P/2019 X1 (Pruyne),e,10.2446,43.7101,36.6112,6.177336,0.0641951,0.30341215,25.4301,08/19.0/2020,2000,g 10.4,4.0
# From MPC119999
C/2019 Y1 (ATLAS),e,73.2528,31.5187,57.9765,86.35117,0.0012283,0.99036978,0.0000,03/15.5964/2020,2000,g 13.7,4.0
# From MPC119999
P/2019 Y2 (Fuls),e,4.9019,81.0809,91.7350,3.528662,0.1486925,0.39611965,29.9387,08/19.0/2020,2000,g 13.2,4.0
# From MPEC 2020-L06
C/2019 Y4 (ATLAS),e,45.3832,120.5715,177.3021,495.9603,0.0000892,0.99949011,0.0000,05/31.0545/2020,2000,g 11.8,6.0
# From MPEC 2020-L06
C/2019 Y4-A (ATLAS),h,05/31.0420/2020,45.8250,120.9278,177.2468,1.001335,0.251018,2000,11.6,6.0
# From MPEC 2020-L06
C/2019 Y4-B (ATLAS),e,45.4596,120.6236,177.3802,1051,0.0000289,0.99975960,0.0000,05/31.0208/2020,2000,g 12.8,6.0
# From MPEC 2020-L06
C/2019 Y4-C (ATLAS),h,05/31.0003/2020,45.6073,120.6534,177.2802,1.002052,0.252068,2000,12.7,6.0
# From MPEC 2020-L06
C/2019 Y4-D (ATLAS),e,45.6486,121.0341,177.4191,67.11234,0.0017927,0.99625304,0.0000,05/31.1173/2020,2000,g 12.5,6.0
# From MPEC 2020-L06
C/2020 A2 (Iwamoto),e,120.7500,286.3791,68.2133,1205,0.0000235,0.99918871,0.0000,01/08.3317/2020,2000,g 13.5,4.0
# From MPEC 2020-L06
C/2020 A3 (ATLAS),h,07/29.5869/2019,146.7770,120.3769,271.1637,1.024727,5.839472,2000,8.0,4.0
# From MPEC 2020-L06
C/2020 B3 (Rankin),e,20.7043,185.8256,325.0838,1642,0.0000148,0.99796266,0.0000,10/19.8349/2019,2000,g 13.0,4.0
# From MPEC 2020-L06
C/2020 F2 (ATLAS),h,07/16.7246/2022,163.5743,250.2499,48.3723,1.002200,8.817075,2000,4.5,4.0
# From MPEC 2020-L06
C/2020 F3 (NEOWISE),e,128.9368,61.0124,37.2718,370.6705,0.0001381,0.99920484,0.0000,07/03.6829/2020,2000,g 12.5,3.2
# From MPEC 2020-L06
C/2020 F5 (MASTER),h,03/23.9536/2021,51.7004,350.6299,311.0131,1.002029,4.326913,2000,6.5,3.2
# From MPEC 2020-L06
C/2020 F6 (PANSTARRS),e,174.5814,207.8806,344.5961,374.6398,0.0001359,0.99062830,0.0000,04/11.5879/2020,2000,g 14.5,2.8
# From MPEC 2020-L06
A/2020 F7,e,93.9500,321.8861,227.9930,790.6731,0.0000443,0.99325707,0.0000,11/14.1415/2021,2000,g 12.0,2.0
# From MPEC 2020-KB7
C/2020 F8 (SWAN),e,110.7958,260.0086,68.2238,274.0989,0.0002172,0.99842976,0.0000,05/27.5660/2020,2000,g 10.0,4.0
# From MPEC 2020-L06
P/2020 G1 (Pimentel),e,18.4771,240.0932,207.6638,3.611810,0.1435875,0.85993874,22.1967,08/19.0/2020,2000,g 17.0,4.0
# From MPEC 2020-L06
C/2020 H2 (Pruyne),e,125.0444,277.6351,26.6943,184.8639,0.0003921,0.99549052,0.0000,04/27.5905/2020,2000,g 18.0,4.0
# From MPEC 2020-HM1
C/2020 H3 (Wierzchos),p,06/05.7162/2020,62.5292,30.4456,2.300288,270.6227,2000,13.5,4.0
# From MPEC 2020-L06
C/2020 H4 (Leonard),e,84.5148,307.7367,117.6124,48.13851,0.0029510,0.98073855,0.0000,08/29.5180/2020,2000,g 15.0,3.2
# From MPEC 2020-L06
C/2020 H5 (Robinson),e,70.2445,210.6040,325.0640,1092,0.0000273,0.99141917,0.0000,11/14.8998/2020,2000,g  5.0,4.0
# From MPEC 2020-L06
C/2020 H6 (ATLAS),h,09/30.9295/2021,79.9607,213.7003,20.3095,1.000872,4.704866,2000,8.0,3.2
# From MPEC 2020-KB7
C/2020 H7 (Lemmon),e,135.9235,323.5194,82.6780,1405,0.0000187,0.99685380,0.0000,06/02.9510/2020,2000,g 11.0,4.0
# From MPEC 2020-KB7
C/2020 H8 (PANSTARRS),p,06/06.7207/2020,99.7116,129.2192,4.678446,68.3225,2000,10.5,4.0
# From MPEC 2020-L06
A/2020 H9,e,137.8685,213.1189,312.8771,518.9702,0.0000834,0.99503054,0.0000,12/21.3256/2019,2000,g 18.0,2.0
# From MPEC 2020-L06
C/2020 J1 (SONEAR),e,142.3007,226.5726,341.6980,491.7207,0.0000904,0.99316651,0.0000,04/19.3120/2021,2000,g  8.5,3.2
# From MPEC 2020-L06
C/2020 K1 (PANSTARRS),h,05/08.1536/2023,89.6509,94.3714,213.8979,1.000795,3.075397,2000,5.5,4.0
# From MPEC 2020-KF5
C/2020 K2 (PANSTARRS),p,12/30.6730/2018,89.7510,34.2348,8.177098,285.5819,2000,6.5,4.0
# From MPEC 2020-KF9
C/2020 K3 (Leonard),p,06/01.0032/2020,129.0152,64.4924,1.583069,28.3546,2000,14.5,4.0
# From MPEC 2020-L06
C/2020 K4 (PANSTARRS),e,125.5630,264.0950,308.7695,23.92423,0.0084226,0.92673291,1.4171,08/19.0/2020,2000,g 16.5,4.0
# From MPEC 2020-L06
C/2020 K5 (PANSTARRS),h,06/05.6109/2021,67.1669,86.1595,249.6102,1.001363,1.535230,2000,11.0,4.0
# From MPEC 2020-L06
C/2020 K6 (Rankin),h,08/25.4235/2021,103.8107,291.5655,41.6005,1.001632,5.995516,2000,8.0,4.0
# From MPEC 2020-L09
C/2020 K7 (PANSTARRS),p,10/05.3027/2021,34.5520,60.8413,5.644571,287.4776,2000,8.0,4.0
# From MPEC 2020-P29
C/2020 P1 (NEOWISE),p,10/20.1731/2020,45.0233,8.9015,0.342498,53.5059,2000,14.0,3.2
# From MPEC 2020-Q01
C/2020 P3 (ATLAS),e,61.6632,18.8130,81.3618,50.78212,0.0027236,0.86676673,359.9975,04/10.0/2021,2000,g  6.0,4.0
# From  98, 1083
1P/Halley,e,162.2977,58.3394,111.2784,17.87106,0.0130460,0.96616884,164.7419,08/19.0/2020,2000,g  4.0,6.0
# From MPC118097
2P/Encke,e,11.7647,334.5509,186.5641,2.215334,0.2989132,0.84800276,16.1875,08/19.0/2020,2000,g 11.5,6.0
# From MPEC 2015-A10
4P/Faye,e,8.0079,193.1192,206.8608,3.828057,0.1315941,0.57766198,309.1732,08/19.0/2020,2000,g  8.0,6.0
# From MPEC 2015-S97
6P/d'Arrest,e,19.5121,138.9342,178.0930,3.497779,0.1506661,0.61260310,300.5196,08/19.0/2020,2000,g  9.0,4.0
# From MPEC 2015-E14
7P/Pons-Winnecke,e,22.3640,93.3792,172.5767,3.414874,0.1561860,0.63852814,316.0973,08/19.0/2020,2000,g  9.0,4.0
# From MPC 75715
8P/Tuttle,e,54.9116,270.2047,207.4905,5.703521,0.0723585,0.82007724,332.9534,08/19.0/2020,2000,g  9.0,4.0
# From MPEC 2019-JE2
9P/Tempel,e,10.4716,68.7327,179.3186,3.147268,0.1765239,0.50945981,260.6482,08/19.0/2020,2000,g  9.0,4.0
# From MPC114607
